{
  "type": "FeatureCollection",
  "features": [
    {
      "type": "Feature",
      "properties": {
        "norad_id": 34389,
        "name": "COSMOS 2251 DEB",
        "group": "cosmos-2251-debris",
        "lat": -30.2858844453272,
        "lon": 92.29226448917754,
        "alt_km": 778.7694348764553,
        "timestamp": "2025-12-05T19:30:25.961146+00:00",
        "meta_object_name": "COSMOS 2251 DEB",
        "meta_object_id": "1993-036QE",
        "meta_epoch": "2025-12-05T05:54:07.574400",
        "meta_mean_motion": 14.41501119,
        "meta_eccentricity": 0.00285658,
        "meta_inclination": 74.0197,
        "meta_ra_of_asc_node": 263.7087,
        "meta_arg_of_pericenter": 17.2346,
        "meta_mean_anomaly": 133.8095,
        "meta_ephemeris_type": 0,
        "meta_classification_type": "U",
        "meta_norad_cat_id": 34389,
        "meta_element_set_no": 999,
        "meta_rev_at_epoch": 87904,
        "meta_bstar": 0.00086710356,
        "meta_mean_motion_dot": 2.804e-05,
        "meta_mean_motion_ddot": 0,
        "tle_line1": "1 34389U 93036QE  25339.24592100  .00002804  00000+0  86710-3 0  9991",
        "tle_line2": "2 34389  74.0197 263.7087 0028565  17.2346 133.8095 14.41501119879043"
      },
      "geometry": {
        "type": "Point",
        "coordinates": [
          92.29226448917754,
          -30.2858844453272
        ]
      }
    },
    {
      "type": "Feature",
      "properties": {
        "norad_id": 34396,
        "name": "COSMOS 2251 DEB",
        "group": "cosmos-2251-debris",
        "lat": 38.163492540541654,
        "lon": 150.56777074196668,
        "alt_km": 648.6392797739809,
        "timestamp": "2025-12-05T19:30:25.961156+00:00",
        "meta_object_name": "COSMOS 2251 DEB",
        "meta_object_id": "1993-036QM",
        "meta_epoch": "2025-12-04T12:39:41.449248",
        "meta_mean_motion": 14.7405114,
        "meta_eccentricity": 0.0007299,
        "meta_inclination": 74.0277,
        "meta_ra_of_asc_node": 140.0678,
        "meta_arg_of_pericenter": 182.7859,
        "meta_mean_anomaly": 239.7557,
        "meta_ephemeris_type": 0,
        "meta_classification_type": "U",
        "meta_norad_cat_id": 34396,
        "meta_element_set_no": 999,
        "meta_rev_at_epoch": 88225,
        "meta_bstar": 0.005398,
        "meta_mean_motion_dot": 0.00035702,
        "meta_mean_motion_ddot": 0,
        "tle_line1": "1 34396U 93036QM  25338.52756307  .00035702  00000+0  53980-2 0  9995",
        "tle_line2": "2 34396  74.0277 140.0678 0007299 182.7859 239.7557 14.74051140882257"
      },
      "geometry": {
        "type": "Point",
        "coordinates": [
          150.56777074196668,
          38.163492540541654
        ]
      }
    },
    {
      "type": "Feature",
      "properties": {
        "norad_id": 34400,
        "name": "COSMOS 2251 DEB",
        "group": "cosmos-2251-debris",
        "lat": -70.87045936356235,
        "lon": -85.34284862089991,
        "alt_km": 419.28993588009325,
        "timestamp": "2025-12-05T19:30:25.961167+00:00",
        "meta_object_name": "COSMOS 2251 DEB",
        "meta_object_id": "1993-036QR",
        "meta_epoch": "2025-12-04T20:41:48.818112",
        "meta_mean_motion": 15.49238824,
        "meta_eccentricity": 0.0007335,
        "meta_inclination": 73.9684,
        "meta_ra_of_asc_node": 40.7515,
        "meta_arg_of_pericenter": 270.3968,
        "meta_mean_anomaly": 89.6404,
        "meta_ephemeris_type": 0,
        "meta_classification_type": "U",
        "meta_norad_cat_id": 34400,
        "meta_element_set_no": 999,
        "meta_rev_at_epoch": 89852,
        "meta_bstar": 0.0052697,
        "meta_mean_motion_dot": 0.00299185,
        "meta_mean_motion_ddot": 0,
        "tle_line1": "1 34400U 93036QR  25338.86237058  .00299185  00000+0  52697-2 0  9996",
        "tle_line2": "2 34400  73.9684  40.7515 0007335 270.3968  89.6404 15.49238824898524"
      },
      "geometry": {
        "type": "Point",
        "coordinates": [
          -85.34284862089991,
          -70.87045936356235
        ]
      }
    },
    {
      "type": "Feature",
      "properties": {
        "norad_id": 34409,
        "name": "COSMOS 2251 DEB",
        "group": "cosmos-2251-debris",
        "lat": -24.144221249485483,
        "lon": -47.36495068115615,
        "alt_km": 677.4328469030579,
        "timestamp": "2025-12-05T19:30:25.961177+00:00",
        "meta_object_name": "COSMOS 2251 DEB",
        "meta_object_id": "1993-036RA",
        "meta_epoch": "2025-12-05T01:50:04.771104",
        "meta_mean_motion": 14.579981,
        "meta_eccentricity": 0.00795058,
        "meta_inclination": 74.0627,
        "meta_ra_of_asc_node": 321.392,
        "meta_arg_of_pericenter": 37.8076,
        "meta_mean_anomaly": 34.5259,
        "meta_ephemeris_type": 0,
        "meta_classification_type": "U",
        "meta_norad_cat_id": 34409,
        "meta_element_set_no": 999,
        "meta_rev_at_epoch": 89081,
        "meta_bstar": 0.00043801789,
        "meta_mean_motion_dot": 2.072e-05,
        "meta_mean_motion_ddot": 0,
        "tle_line1": "1 34409U 93036RA  25339.07644411  .00002072  00000+0  43802-3 0  9990",
        "tle_line2": "2 34409  74.0627 321.3920 0079505  37.8076  34.5259 14.57998100890813"
      },
      "geometry": {
        "type": "Point",
        "coordinates": [
          -47.36495068115615,
          -24.144221249485483
        ]
      }
    },
    {
      "type": "Feature",
      "properties": {
        "norad_id": 34410,
        "name": "COSMOS 2251 DEB",
        "group": "cosmos-2251-debris",
        "lat": -48.397128690971336,
        "lon": -102.70045681773884,
        "alt_km": 532.58896106274,
        "timestamp": "2025-12-05T19:30:25.961188+00:00",
        "meta_object_name": "COSMOS 2251 DEB",
        "meta_object_id": "1993-036RB",
        "meta_epoch": "2025-12-03T22:08:19.253184",
        "meta_mean_motion": 15.17562106,
        "meta_eccentricity": 0.0020723,
        "meta_inclination": 73.7392,
        "meta_ra_of_asc_node": 280.509,
        "meta_arg_of_pericenter": 121.9342,
        "meta_mean_anomaly": 302.742,
        "meta_ephemeris_type": 0,
        "meta_classification_type": "U",
        "meta_norad_cat_id": 34410,
        "meta_element_set_no": 999,
        "meta_rev_at_epoch": 89640,
        "meta_bstar": 0.004684,
        "meta_mean_motion_dot": 0.00095812,
        "meta_mean_motion_ddot": 0,
        "tle_line1": "1 34410U 93036RB  25337.92244506  .00095812  00000+0  46840-2 0  9993",
        "tle_line2": "2 34410  73.7392 280.5090 0020723 121.9342 302.7420 15.17562106896404"
      },
      "geometry": {
        "type": "Point",
        "coordinates": [
          -102.70045681773884,
          -48.397128690971336
        ]
      }
    },
    {
      "type": "Feature",
      "properties": {
        "norad_id": 34412,
        "name": "COSMOS 2251 DEB",
        "group": "cosmos-2251-debris",
        "lat": 71.78923997659803,
        "lon": 96.57389591699656,
        "alt_km": 606.3654463854982,
        "timestamp": "2025-12-05T19:30:25.961199+00:00",
        "meta_object_name": "COSMOS 2251 DEB",
        "meta_object_id": "1993-036RD",
        "meta_epoch": "2025-12-05T00:48:53.156448",
        "meta_mean_motion": 14.47016889,
        "meta_eccentricity": 0.01870861,
        "meta_inclination": 73.9481,
        "meta_ra_of_asc_node": 339.0994,
        "meta_arg_of_pericenter": 76.0298,
        "meta_mean_anomaly": 286.1585,
        "meta_ephemeris_type": 0,
        "meta_classification_type": "U",
        "meta_norad_cat_id": 34412,
        "meta_element_set_no": 999,
        "meta_rev_at_epoch": 87539,
        "meta_bstar": 0.0018666483,
        "meta_mean_motion_dot": 8.438e-05,
        "meta_mean_motion_ddot": 0,
        "tle_line1": "1 34412U 93036RD  25339.03394857  .00008438  00000+0  18666-2 0  9997",
        "tle_line2": "2 34412  73.9481 339.0994 0187086  76.0298 286.1585 14.47016889875392"
      },
      "geometry": {
        "type": "Point",
        "coordinates": [
          96.57389591699656,
          71.78923997659803
        ]
      }
    },
    {
      "type": "Feature",
      "properties": {
        "norad_id": 34413,
        "name": "COSMOS 2251 DEB",
        "group": "cosmos-2251-debris",
        "lat": -40.05038354341247,
        "lon": -96.4696952813512,
        "alt_km": 749.068776613607,
        "timestamp": "2025-12-05T19:30:25.961209+00:00",
        "meta_object_name": "COSMOS 2251 DEB",
        "meta_object_id": "1993-036RE",
        "meta_epoch": "2025-12-05T06:58:10.706880",
        "meta_mean_motion": 14.2899816,
        "meta_eccentricity": 0.00907343,
        "meta_inclination": 74.0319,
        "meta_ra_of_asc_node": 278.4055,
        "meta_arg_of_pericenter": 356.2477,
        "meta_mean_anomaly": 156.0929,
        "meta_ephemeris_type": 0,
        "meta_classification_type": "U",
        "meta_norad_cat_id": 34413,
        "meta_element_set_no": 999,
        "meta_rev_at_epoch": 87024,
        "meta_bstar": 0.0033499689,
        "meta_mean_motion_dot": 8.843e-05,
        "meta_mean_motion_ddot": 0,
        "tle_line1": "1 34413U 93036RE  25339.29040170  .00008843  00000+0  33500-2 0  9996",
        "tle_line2": "2 34413  74.0319 278.4055 0090734 356.2477 156.0929 14.28998160870240"
      },
      "geometry": {
        "type": "Point",
        "coordinates": [
          -96.4696952813512,
          -40.05038354341247
        ]
      }
    }
  ]
}